<?xml version="1.0" encoding="UTF-8"?>
<ndm xmlns:xsi="http://www.w3.org/2001/XMLSchema-instance" xsi:noNamespaceSchemaLocation="https://sanaregistry.org/r/ndmxml_unqualified/ndmxml-2.0.0-master-2.0.xsd">
<omm id="CCSDS_OMM_VERS" version="2.0">
<header><CREATION_DATE/><ORIGINATOR/></header><body><segment><metadata><OBJECT_NAME>ORBCOMM FM05</OBJECT_NAME><OBJECT_ID>1997-084F</OBJECT_ID><CENTER_NAME>EARTH</CENTER_NAME><REF_FRAME>TEME</REF_FRAME><TIME_SYSTEM>UTC</TIME_SYSTEM><MEAN_ELEMENT_THEORY>SGP4</MEAN_ELEMENT_THEORY></metadata><data><meanElements><EPOCH>2024-12-29T12:58:41.661408</EPOCH><MEAN_MOTION>14.44808769</MEAN_MOTION><ECCENTRICITY>.0001051</ECCENTRICITY><INCLINATION>45.0145</INCLINATION><RA_OF_ASC_NODE>101.9621</RA_OF_ASC_NODE><ARG_OF_PERICENTER>178.4660</ARG_OF_PERICENTER><MEAN_ANOMALY>181.6194</MEAN_ANOMALY></meanElements><tleParameters><EPHEMERIS_TYPE>0</EPHEMERIS_TYPE><CLASSIFICATION_TYPE>U</CLASSIFICATION_TYPE><NORAD_CAT_ID>25117</NORAD_CAT_ID><ELEMENT_SET_NO>999</ELEMENT_SET_NO><REV_AT_EPOCH>41606</REV_AT_EPOCH><BSTAR>.15601E-2</BSTAR><MEAN_MOTION_DOT>.5334E-4</MEAN_MOTION_DOT><MEAN_MOTION_DDOT>0</MEAN_MOTION_DDOT></tleParameters></data></segment></body></omm>
<omm id="CCSDS_OMM_VERS" version="2.0">
<header><CREATION_DATE/><ORIGINATOR/></header><body><segment><metadata><OBJECT_NAME>ORBCOMM FM06</OBJECT_NAME><OBJECT_ID>1997-084G</OBJECT_ID><CENTER_NAME>EARTH</CENTER_NAME><REF_FRAME>TEME</REF_FRAME><TIME_SYSTEM>UTC</TIME_SYSTEM><MEAN_ELEMENT_THEORY>SGP4</MEAN_ELEMENT_THEORY></metadata><data><meanElements><EPOCH>2024-12-29T13:34:47.776800</EPOCH><MEAN_MOTION>14.44988042</MEAN_MOTION><ECCENTRICITY>.0001601</ECCENTRICITY><INCLINATION>45.0138</INCLINATION><RA_OF_ASC_NODE>101.7893</RA_OF_ASC_NODE><ARG_OF_PERICENTER>215.7017</ARG_OF_PERICENTER><MEAN_ANOMALY>224.4814</MEAN_ANOMALY></meanElements><tleParameters><EPHEMERIS_TYPE>0</EPHEMERIS_TYPE><CLASSIFICATION_TYPE>U</CLASSIFICATION_TYPE><NORAD_CAT_ID>25118</NORAD_CAT_ID><ELEMENT_SET_NO>999</ELEMENT_SET_NO><REV_AT_EPOCH>41698</REV_AT_EPOCH><BSTAR>.13998E-2</BSTAR><MEAN_MOTION_DOT>.4789E-4</MEAN_MOTION_DOT><MEAN_MOTION_DDOT>0</MEAN_MOTION_DDOT></tleParameters></data></segment></body></omm>
<omm id="CCSDS_OMM_VERS" version="2.0">
<header><CREATION_DATE/><ORIGINATOR/></header><body><segment><metadata><OBJECT_NAME>ORBCOMM FM07</OBJECT_NAME><OBJECT_ID>1997-084H</OBJECT_ID><CENTER_NAME>EARTH</CENTER_NAME><REF_FRAME>TEME</REF_FRAME><TIME_SYSTEM>UTC</TIME_SYSTEM><MEAN_ELEMENT_THEORY>SGP4</MEAN_ELEMENT_THEORY></metadata><data><meanElements><EPOCH>2024-12-29T13:24:50.800320</EPOCH><MEAN_MOTION>14.44869017</MEAN_MOTION><ECCENTRICITY>.0000872</ECCENTRICITY><INCLINATION>45.0133</INCLINATION><RA_OF_ASC_NODE>102.5418</RA_OF_ASC_NODE><ARG_OF_PERICENTER>132.3851</ARG_OF_PERICENTER><MEAN_ANOMALY>227.7074</MEAN_ANOMALY></meanElements><tleParameters><EPHEMERIS_TYPE>0</EPHEMERIS_TYPE><CLASSIFICATION_TYPE>U</CLASSIFICATION_TYPE><NORAD_CAT_ID>25119</NORAD_CAT_ID><ELEMENT_SET_NO>999</ELEMENT_SET_NO><REV_AT_EPOCH>41697</REV_AT_EPOCH><BSTAR>.14817E-2</BSTAR><MEAN_MOTION_DOT>.5065E-4</MEAN_MOTION_DOT><MEAN_MOTION_DDOT>0</MEAN_MOTION_DDOT></tleParameters></data></segment></body></omm>
<omm id="CCSDS_OMM_VERS" version="2.0">
<header><CREATION_DATE/><ORIGINATOR/></header><body><segment><metadata><OBJECT_NAME>ORBCOMM FM03</OBJECT_NAME><OBJECT_ID>1998-007B</OBJECT_ID><CENTER_NAME>EARTH</CENTER_NAME><REF_FRAME>TEME</REF_FRAME><TIME_SYSTEM>UTC</TIME_SYSTEM><MEAN_ELEMENT_THEORY>SGP4</MEAN_ELEMENT_THEORY></metadata><data><meanElements><EPOCH>2024-12-29T08:28:12.994752</EPOCH><MEAN_MOTION>14.33695450</MEAN_MOTION><ECCENTRICITY>.004682</ECCENTRICITY><INCLINATION>107.9663</INCLINATION><RA_OF_ASC_NODE>146.8744</RA_OF_ASC_NODE><ARG_OF_PERICENTER>188.9807</ARG_OF_PERICENTER><MEAN_ANOMALY>171.0499</MEAN_ANOMALY></meanElements><tleParameters><EPHEMERIS_TYPE>0</EPHEMERIS_TYPE><CLASSIFICATION_TYPE>U</CLASSIFICATION_TYPE><NORAD_CAT_ID>25158</NORAD_CAT_ID><ELEMENT_SET_NO>999</ELEMENT_SET_NO><REV_AT_EPOCH>39969</REV_AT_EPOCH><BSTAR>.14884E-2</BSTAR><MEAN_MOTION_DOT>.406E-4</MEAN_MOTION_DOT><MEAN_MOTION_DDOT>0</MEAN_MOTION_DDOT></tleParameters></data></segment></body></omm>
<omm id="CCSDS_OMM_VERS" version="2.0">
<header><CREATION_DATE/><ORIGINATOR/></header><body><segment><metadata><OBJECT_NAME>ORBCOMM FM04</OBJECT_NAME><OBJECT_ID>1998-007C</OBJECT_ID><CENTER_NAME>EARTH</CENTER_NAME><REF_FRAME>TEME</REF_FRAME><TIME_SYSTEM>UTC</TIME_SYSTEM><MEAN_ELEMENT_THEORY>SGP4</MEAN_ELEMENT_THEORY></metadata><data><meanElements><EPOCH>2024-12-29T08:49:22.872576</EPOCH><MEAN_MOTION>14.33964857</MEAN_MOTION><ECCENTRICITY>.0042359</ECCENTRICITY><INCLINATION>107.9651</INCLINATION><RA_OF_ASC_NODE>150.0078</RA_OF_ASC_NODE><ARG_OF_PERICENTER>186.8241</ARG_OF_PERICENTER><MEAN_ANOMALY>173.2326</MEAN_ANOMALY></meanElements><tleParameters><EPHEMERIS_TYPE>0</EPHEMERIS_TYPE><CLASSIFICATION_TYPE>U</CLASSIFICATION_TYPE><NORAD_CAT_ID>25159</NORAD_CAT_ID><ELEMENT_SET_NO>999</ELEMENT_SET_NO><REV_AT_EPOCH>39987</REV_AT_EPOCH><BSTAR>.15393E-2</BSTAR><MEAN_MOTION_DOT>.4217E-4</MEAN_MOTION_DOT><MEAN_MOTION_DDOT>0</MEAN_MOTION_DDOT></tleParameters></data></segment></body></omm>
<omm id="CCSDS_OMM_VERS" version="2.0">
<header><CREATION_DATE/><ORIGINATOR/></header><body><segment><metadata><OBJECT_NAME>ORBCOMM FM18</OBJECT_NAME><OBJECT_ID>1998-046B</OBJECT_ID><CENTER_NAME>EARTH</CENTER_NAME><REF_FRAME>TEME</REF_FRAME><TIME_SYSTEM>UTC</TIME_SYSTEM><MEAN_ELEMENT_THEORY>SGP4</MEAN_ELEMENT_THEORY></metadata><data><meanElements><EPOCH>2024-12-29T10:30:23.156928</EPOCH><MEAN_MOTION>14.37634161</MEAN_MOTION><ECCENTRICITY>.0003947</ECCENTRICITY><INCLINATION>44.9923</INCLINATION><RA_OF_ASC_NODE>260.1626</RA_OF_ASC_NODE><ARG_OF_PERICENTER>133.8101</ARG_OF_PERICENTER><MEAN_ANOMALY>226.3073</MEAN_ANOMALY></meanElements><tleParameters><EPHEMERIS_TYPE>0</EPHEMERIS_TYPE><CLASSIFICATION_TYPE>U</CLASSIFICATION_TYPE><NORAD_CAT_ID>25414</NORAD_CAT_ID><ELEMENT_SET_NO>999</ELEMENT_SET_NO><REV_AT_EPOCH>37981</REV_AT_EPOCH><BSTAR>.11984E-2</BSTAR><MEAN_MOTION_DOT>.3491E-4</MEAN_MOTION_DOT><MEAN_MOTION_DDOT>0</MEAN_MOTION_DDOT></tleParameters></data></segment></body></omm>
<omm id="CCSDS_OMM_VERS" version="2.0">
<header><CREATION_DATE/><ORIGINATOR/></header><body><segment><metadata><OBJECT_NAME>ORBCOMM FM19</OBJECT_NAME><OBJECT_ID>1998-046C</OBJECT_ID><CENTER_NAME>EARTH</CENTER_NAME><REF_FRAME>TEME</REF_FRAME><TIME_SYSTEM>UTC</TIME_SYSTEM><MEAN_ELEMENT_THEORY>SGP4</MEAN_ELEMENT_THEORY></metadata><data><meanElements><EPOCH>2024-12-29T11:08:25.121760</EPOCH><MEAN_MOTION>14.37449576</MEAN_MOTION><ECCENTRICITY>.000287</ECCENTRICITY><INCLINATION>44.9935</INCLINATION><RA_OF_ASC_NODE>261.7723</RA_OF_ASC_NODE><ARG_OF_PERICENTER>119.9533</ARG_OF_PERICENTER><MEAN_ANOMALY>49.4723</MEAN_ANOMALY></meanElements><tleParameters><EPHEMERIS_TYPE>0</EPHEMERIS_TYPE><CLASSIFICATION_TYPE>U</CLASSIFICATION_TYPE><NORAD_CAT_ID>25415</NORAD_CAT_ID><ELEMENT_SET_NO>999</ELEMENT_SET_NO><REV_AT_EPOCH>37977</REV_AT_EPOCH><BSTAR>.12444E-2</BSTAR><MEAN_MOTION_DOT>.3617E-4</MEAN_MOTION_DOT><MEAN_MOTION_DDOT>0</MEAN_MOTION_DDOT></tleParameters></data></segment></body></omm>

</ndm>
