ORBCOMM FM05            
1 25117U 97084F   24364.54075997  .00005334  00000+0  15601-2 0  9998
2 25117  45.0145 101.9621 0001051 178.4660 181.6194 14.44808769416064
ORBCOMM FM06            
1 25118U 97084G   24364.56583075  .00004789  00000+0  13998-2 0  9992
2 25118  45.0138 101.7893 0001601 215.7017 224.4814 14.44988042416987
ORBCOMM FM07            
1 25119U 97084H   24364.55892130  .00005065  00000+0  14817-2 0  9996
2 25119  45.0133 102.5418 0000872 132.3851 227.7074 14.44869017416977
ORBCOMM FM03            
1 25158U 98007B   24364.35292818  .00004060  00000+0  14884-2 0  9998
2 25158 107.9663 146.8744 0046820 188.9807 171.0499 14.33695450399697
ORBCOMM FM04            
1 25159U 98007C   24364.36762584  .00004217  00000+0  15393-2 0  9992
2 25159 107.9651 150.0078 0042359 186.8241 173.2326 14.33964857399877
ORBCOMM FM18            
1 25414U 98046B   24364.43776802  .00003491  00000+0  11984-2 0  9990
2 25414  44.9923 260.1626 0003947 133.8101 226.3073 14.37634161379819
ORBCOMM FM19            
1 25415U 98046C   24364.46417965  .00003617  00000+0  12444-2 0  9998
2 25415  44.9935 261.7723 0002870 119.9533  49.4723 14.37449576379771
